IRIDIUM 135             
1 43070U 17083A   26192.84962101  .00000123  00000+0  36759-4 0  9993
2 43070  86.3983 311.7058 0002182  94.2021 265.9425 14.34217799447688
IRIDIUM 138             
1 43071U 17083B   26192.87499067  .00000113  00000+0  33246-4 0  9990
2 43071  86.3996 311.3945 0002066  92.0202 268.1231 14.34217727447672
IRIDIUM 116             
1 43072U 17083C   26192.84327571  .00000083  00000+0  22686-4 0  9990
2 43072  86.3987 311.6942 0002398  99.6192 260.5275 14.34216882447701
IRIDIUM 130             
1 43073U 17083D   26192.81156685  .00000125  00000+0  37408-4 0  9999
2 43073  86.3992 311.9851 0002181 100.5131 259.6311 14.34217059447645
IRIDIUM 151             
1 43074U 17083E   26192.85596340  .00000145  00000+0  44824-4 0  9992
2 43074  86.3986 311.7470 0002221  95.4202 264.7248 14.34217398447675
IRIDIUM 134             
1 43075U 17083F   26192.82425021  .00000122  00000+0  36404-4 0  9997
2 43075  86.3986 311.7687 0002190  95.5619 264.5826 14.34217869447633
IRIDIUM 137             
1 43076U 17083G   26192.83693686  .00000122  00000+0  36342-4 0  9994
2 43076  86.3988 311.8567 0002653  94.9609 265.1889 14.34217758447701
IRIDIUM 141             
1 43077U 17083H   26192.90036022  .00000122  00000+0  36680-4 0  9993
2 43077  86.3984 311.6593 0002151  93.0534 267.0908 14.34217398447719
IRIDIUM 153             
1 43078U 17083J   26193.20138207  .00000057  00000+0  13325-4 0  9994
2 43078  86.3960 280.0134 0002111  94.2419 265.9018 14.34217620448869
IRIDIUM 131             
1 43079U 17083K   26192.81790843  .00000035  00000+0  54528-5 0  9998
2 43079  86.3990 311.8813 0002241  92.9657 267.1796 14.34217446447630
IRIDIUM 144             
1 43249U 18030A   26193.20772495  .00000063  00000+0  15411-4 0  9995
2 43249  86.3957 279.9393 0002367  98.3111 261.8353 14.34217775433723
IRIDIUM 149             
1 43250U 18030B   26193.21406782  .00000121  00000+0  36066-4 0  9995
2 43250  86.3958 279.9033 0002251  93.5504 266.5949 14.34217781433744
IRIDIUM 157             
1 43251U 18030C   26193.23309782  .00000128  00000+0  38710-4 0  9995
2 43251  86.3961 279.9493 0002243  94.1288 266.0164 14.34217295433728
IRIDIUM 140             
1 43252U 18030D   26193.18235637  .00000146  00000+0  45076-4 0  9990
2 43252  86.3960 279.9831 0002221  95.4317 264.7132 14.34216889433770
IRIDIUM 145             
1 43253U 18030E   26193.16966764  .00000140  00000+0  43039-4 0  9992
2 43253  86.3959 279.9602 0002458 100.7220 259.4253 14.34217045433703
IRIDIUM 146             
1 43254U 18030F   26193.22040956  .00000012  00000+0 -26043-5 0  9992
2 43254  86.3959 279.9513 0002246  97.3084 262.8367 14.34217078433721
IRIDIUM 148             
1 43255U 18030G   26193.18870017  .00000151  00000+0  46941-4 0  9998
2 43255  86.3962 280.0080 0002344  94.5825 265.5638 14.34217343433758
IRIDIUM 142             
1 43256U 18030H   26193.22675316  .00000127  00000+0  38244-4 0  9999
2 43256  86.3956 279.8804 0002404  97.9956 262.1513 14.34217953433720
IRIDIUM 150             
1 43257U 18030J   26191.17174645 -.00000245  00000+0 -94436-4 0  9999
2 43257  86.3963 280.8566 0002215  95.9860 264.1588 14.34219143433455
IRIDIUM 143             
1 43258U 18030K   26193.17601227  .00000090  00000+0  25134-4 0  9998
2 43258  86.3962 280.1121 0002317  96.6168 263.5291 14.34217422433673
IRIDIUM 161             
1 43478U 18047C   26192.15744448  .00000172  00000+0  45078-4 0  9990
2 43478  86.4467  78.4474 0002306  78.8180 281.3280 14.43284936428596
IRIDIUM 152             
1 43479U 18047D   26193.14873406  .00000144  00000+0  44307-4 0  9991
2 43479  86.3939  77.8940 0002138  82.7975 277.3463 14.34219431426066
IRIDIUM 147             
1 43480U 18047E   26192.80622844  .00000147  00000+0  45287-4 0  9994
2 43480  86.3941  78.0429 0002275  88.4643 271.6813 14.34217175426017
IRIDIUM 110             
1 43481U 18047F   26193.09164735  .00000138  00000+0  42044-4 0  9995
2 43481  86.3945  78.0162 0002174  76.6103 283.5334 14.34217713426045
IRIDIUM 162             
1 43482U 18047G   26191.11118814  .00000189  00000+0  50126-4 0  9990
2 43482  86.4467  78.7759 0002187  84.2783 275.8667 14.43283456428433
IRIDIUM 160             
1 43569U 18061A   26193.03747978  .00000111  00000+0  32479-4 0  9990
2 43569  86.3944  46.4030 0002224  85.8405 274.3045 14.34216236416930
IRIDIUM 166             
1 43570U 18061B   26192.50470310  .00000031  00000+0  39317-5 0  9996
2 43570  86.3940  46.5761 0002260  89.6407 270.5047 14.34217869416881
IRIDIUM 158             
1 43571U 18061C   26193.03113979  .00000047  00000+0  96238-5 0  9993
2 43571  86.3940  46.3656 0002064  86.2666 273.8765 14.34217243416929
IRIDIUM 165             
1 43572U 18061D   26193.05650953  .00000132  00000+0  40121-4 0  9998
2 43572  86.3942  46.4021 0002253  90.3333 269.8121 14.34217398416951
IRIDIUM 155             
1 43573U 18061E   26193.01845407  .00000062  00000+0  15121-4 0  9999
2 43573  86.3939  46.2858 0002090  88.8676 271.2760 14.34217045416916
